[{"OBJECT_NAME":"STARLINK-2608","OBJECT_ID":"2021-038N","EPOCH":"2026-03-09T04:12:27.261792","MEAN_MOTION":15.30231293,"ECCENTRICITY":0.00012557,"INCLINATION":53.1618,"RA_OF_ASC_NODE":350.2719,"ARG_OF_PERICENTER":98.1968,"MEAN_ANOMALY":261.9176,"EPHEMERIS_TYPE":0,"CLASSIFICATION_TYPE":"U","NORAD_CAT_ID":48365,"ELEMENT_SET_NO":999,"REV_AT_EPOCH":26715,"BSTAR":0.00040908631,"MEAN_MOTION_DOT":0.00011788,"MEAN_MOTION_DDOT":0},{"OBJECT_NAME":"SCS-01 M","OBJECT_ID":"2025-100M","EPOCH":"2026-03-09T23:50:15.541152","MEAN_MOTION":15.31880861,"ECCENTRICITY":0.00078021,"INCLINATION":97.3725,"RA_OF_ASC_NODE":145.6908,"ARG_OF_PERICENTER":292.3826,"MEAN_ANOMALY":67.6588,"EPHEMERIS_TYPE":0,"CLASSIFICATION_TYPE":"U","NORAD_CAT_ID":63993,"ELEMENT_SET_NO":999,"REV_AT_EPOCH":4565,"BSTAR":0.0012010051,"MEAN_MOTION_DOT":0.00037061,"MEAN_MOTION_DDOT":0}]
